     2.100          NAVIGATION                              RINEX VERSION / TYPE
fic2rin                                 11/25/2013 00:14:53 PGM / RUN BY / DATE
                                                            END OF HEADER
27 13 11 24 19 59 44.0 -.267894938588D-05 -.329691829393D-11  .000000000000D+00
     .130000000000D+02 -.744375000000D+02  .454840374499D-08  .439071729831D+00
    -.390037894249D-05  .481717288494D-03  .737048685551D-05  .515367094994D+04
     .719840000000D+05  .353902578354D-07  .509487278602D+00  .223517417908D-07
     .961731089172D+00  .238656250000D+03  .587843436987D+00 -.812390982202D-08
    -.314298806093D-10  .100000000000D+01  .176800000000D+04  .000000000000D+00
     .240000000000D+01  .000000000000D+00  .186264514923D-08  .130000000000D+02
     .648060000000D+05  .400000000000D+01
 1 13 11 24 20  0  0.0  .969604589045D-04  .318323145621D-11  .000000000000D+00
     .840000000000D+02 -.155937500000D+02  .455518974194D-08 -.141344586029D+01
    -.856816768646D-06  .255284830928D-02  .992417335510D-05  .515368848228D+04
     .720000000000D+05  .465661287308D-07  .156307563473D+01 -.260770320892D-07
     .960104618314D+00  .186906250000D+03  .435065752498D+00 -.796104589523D-08
     .242510101519D-09  .100000000000D+01  .176800000000D+04  .000000000000D+00
     .240000000000D+01  .000000000000D+00  .791624188423D-08  .840000000000D+02
     .648060000000D+05  .400000000000D+01
 2 13 11 24 20  0  0.0  .463201198727D-03  .216004991671D-11  .000000000000D+00
     .440000000000D+02 -.678125000000D+01  .518128724998D-08 -.580221374858D+00
    -.186264514923D-06  .127599497791D-01  .879354774952D-05  .515376607513D+04
     .720000000000D+05  .134110450745D-06  .153747412069D+01  .193715095520D-06
     .938624551194D+00  .199437500000D+03 -.253794797949D+01 -.839463538454D-08
     .158220876249D-09  .100000000000D+01  .176800000000D+04  .000000000000D+00
     .240000000000D+01  .000000000000D+00 -.204890966415D-07  .440000000000D+02
     .648060000000D+05  .400000000000D+01
 3 13 11 24 20  0  0.0  .290696043521D-03  .522959453519D-11  .000000000000D+00
     .680000000000D+02 -.654687500000D+02  .524879006175D-08 -.412630262358D+00
    -.336207449436D-05  .167021157686D-01  .666081905365D-05  .515374487305D+04
     .720000000000D+05 -.130385160446D-06  .365175623922D+00  .191852450371D-06
     .936536620384D+00  .242281250000D+03  .135155391154D+01 -.878858036536D-08
     .500020827875D-10  .100000000000D+01  .176800000000D+04  .000000000000D+00
     .240000000000D+01  .000000000000D+00 -.465661287308D-08  .680000000000D+02
     .648060000000D+05  .400000000000D+01
 4 13 11 24 20  0  0.0  .353436917067D-05  .341060513165D-12  .000000000000D+00
     .420000000000D+02 -.155625000000D+02  .506628245957D-08  .273061021045D+01
    -.888481736183D-06  .106882519322D-01  .927969813347D-05  .515364594841D+04
     .720000000000D+05  .279396772385D-07  .155370606868D+01 -.162050127983D-06
     .937652224156D+00  .188281250000D+03  .105679779358D+01 -.802069123684D-08
     .156077929844D-09  .100000000000D+01  .176800000000D+04  .000000000000D+00
     .240000000000D+01  .000000000000D+00 -.651925802231D-08  .420000000000D+02
     .648060000000D+05  .400000000000D+01
 5 13 11 24 20  0  0.0 -.396904535592D-03  .795807864051D-12  .000000000000D+00
     .107000000000D+03  .299062500000D+02  .513128516720D-08  .165436593023D+01
     .175461173058D-05  .347112480085D-02  .695697963238D-05  .515374651718D+04
     .720000000000D+05 -.372529029846D-08  .260404306743D+01  .126659870148D-06
     .948041643065D+00  .239875000000D+03  .336780160177D+00 -.834391898629D-08
    -.232152527227D-10  .100000000000D+01  .176800000000D+04  .000000000000D+00
     .340000000000D+01  .000000000000D+00 -.102445483208D-07  .107000000000D+03
     .648060000000D+05  .400000000000D+01
 6 13 11 24 20  0  0.0  .164417549968D-03  .169393388205D-10  .000000000000D+00
     .820000000000D+02 -.712812500000D+02  .498485049617D-08  .142382201784D+01
    -.370293855667D-05  .825701421127D-02  .667199492455D-05  .515368436050D+04
     .720000000000D+05  .651925802231D-07  .445971904794D+00  .143423676491D-06
     .943025978692D+00  .241250000000D+03 -.201580355122D+00 -.832891836145D-08
    -.129291099779D-09  .100000000000D+01  .176800000000D+04  .000000000000D+00
     .240000000000D+01  .000000000000D+00 -.512227416039D-08  .820000000000D+02
     .648060000000D+05  .400000000000D+01
 7 13 11 24 20  0  0.0  .284337438643D-03  .420641299570D-11  .000000000000D+00
     .270000000000D+02  .360000000000D+02  .400552398901D-08 -.195746960065D+01
     .176765024662D-05  .700708688237D-02  .807456672192D-05  .515366427803D+04
     .720000000000D+05 -.298023223877D-07 -.155951700165D+01 -.800937414169D-07
     .974410459101D+00  .231406250000D+03 -.283874560972D+01 -.781782564382D-08
     .810748056625D-10  .100000000000D+01  .176800000000D+04  .000000000000D+00
     .240000000000D+01  .000000000000D+00 -.107102096081D-07  .270000000000D+02
     .648060000000D+05  .400000000000D+01
 8 13 11 24 20  0  0.0  .101085752249D-04  .227373675443D-12  .000000000000D+00
     .930000000000D+02  .317500000000D+02  .354550482736D-08 -.252859776492D+01
     .151991844177D-05  .134812119650D-01  .791996717453D-05  .515367099190D+04
     .720000000000D+05 -.745058059692D-07 -.146417072189D+01 -.206753611565D-06
     .997402789990D+00  .246343750000D+03 -.280454570251D+01 -.752959935232D-08
     .112861844006D-09  .100000000000D+01  .176800000000D+04  .000000000000D+00
     .485000000000D+01  .000000000000D+00 -.465661287308D-08  .930000000000D+02
     .648060000000D+05  .400000000000D+01
 9 13 11 24 20  0  0.0  .285544898361D-03  .284217094304D-11  .000000000000D+00
     .880000000000D+02  .306562500000D+02  .399516641472D-08 -.784737546166D+00
     .160187482834D-05  .168238580227D-01  .821240246296D-05  .515370725822D+04
     .720000000000D+05 -.223517417908D-06 -.158137254864D+01  .968575477600D-07
     .982985069617D+00  .239156250000D+03  .174632421606D+01 -.809355141462D-08
     .992898501065D-10  .100000000000D+01  .176800000000D+04  .000000000000D+00
     .340000000000D+01  .000000000000D+00 -.605359673500D-08  .880000000000D+02
     .648060000000D+05  .400000000000D+01
10 13 11 24 20  0  0.0 -.103150494397D-03 -.159161572810D-11  .000000000000D+00
     .920000000000D+02  .294062500000D+02  .521557439247D-08  .195956031247D+01
     .138953328133D-05  .131915358361D-01  .708363950253D-05  .515367687225D+04
     .720000000000D+05 -.327825546265D-06  .262239468131D+01 -.175088644028D-06
     .942865451228D+00  .235625000000D+03  .834716467303D+00 -.831141763248D-08
     .317870383435D-10  .100000000000D+01  .176800000000D+04  .000000000000D+00
     .340000000000D+01  .000000000000D+00 -.279396772385D-08  .920000000000D+02
     .648060000000D+05  .400000000000D+01
11 13 11 24 20  0  0.0 -.440889969468D-03 -.341060513165D-11  .000000000000D+00
     .520000000000D+02 -.336250000000D+02  .608275337109D-08 -.171617963041D+01
    -.159256160259D-05  .147738383384D-01  .890344381332D-05  .515369517899D+04
     .720000000000D+05  .325962901115D-06  .125258983976D+01  .108033418655D-06
     .889324703464D+00  .163437500000D+03  .124318263283D+01 -.860357265905D-08
     .190365072327D-09  .100000000000D+01  .176800000000D+04  .000000000000D+00
     .240000000000D+01  .000000000000D+00 -.116415321827D-07  .520000000000D+02
     .648060000000D+05  .400000000000D+01
12 13 11 24 20  0  0.0  .170052517205D-03  .227373675443D-11  .000000000000D+00
     .430000000000D+02 -.915625000000D+01  .397623705481D-08 -.226310842472D+01
    -.396743416786D-06  .456970266532D-02  .482797622681D-05  .515372047806D+04
     .720000000000D+05 -.745058059692D-08 -.498603769351D+00 -.204890966415D-07
     .986117645358D+00  .299906250000D+03  .328587988632D+00 -.789818613401D-08
     .170721396946D-09  .100000000000D+01  .176800000000D+04  .000000000000D+00
     .240000000000D+01  .000000000000D+00 -.121071934700D-07  .430000000000D+02
     .648060000000D+05  .400000000000D+01
13 13 11 24 20  0  0.0  .565401278436D-04 -.375166564481D-11  .000000000000D+00
     .360000000000D+02  .107812500000D+02  .409481342256D-08  .405981324557D+00
     .413507223129D-06  .505156908184D-02  .792555510998D-05  .515367489624D+04
     .720000000000D+05  .186264514923D-08 -.252554467244D+01 -.931322574615D-07
     .979771827109D+00  .237218750000D+03  .219682082407D+01 -.793783064251D-08
    -.379301513716D-09  .100000000000D+01  .176800000000D+04  .000000000000D+00
     .240000000000D+01  .000000000000D+00 -.111758708954D-07  .360000000000D+02
     .648060000000D+05  .400000000000D+01
14 13 11 24 20  0  0.0  .209725461900D-03 -.102318153949D-11  .000000000000D+00
     .750000000000D+02  .147812500000D+02  .433446626220D-08  .678195010139D+00
     .787898898125D-06  .736443267670D-02  .806339085102D-05  .515358609581D+04
     .720000000000D+05 -.577419996262D-07 -.255608762971D+01  .596046447754D-07
     .972402785439D+00  .232625000000D+03 -.198835928852D+01 -.807712215884D-08
    -.414302971667D-09  .100000000000D+01  .176800000000D+04  .000000000000D+00
     .240000000000D+01  .000000000000D+00 -.884756445885D-08  .750000000000D+02
     .648060000000D+05  .400000000000D+01
15 13 11 24 20  0  0.0 -.148823484778D-03 -.193267624127D-11  .000000000000D+00
     .970000000000D+02  .865625000000D+01  .511449875369D-08  .185446005713D+00
     .379979610443D-06  .588236318436D-02  .675953924656D-05  .515360469246D+04
     .720000000000D+05  .316649675369D-07 -.266197185114D+01  .484287738800D-07
     .939039907284D+00  .234093750000D+03  .188520480200D+00 -.843856578585D-08
    -.384301721995D-09  .100000000000D+01  .176800000000D+04  .000000000000D+00
     .240000000000D+01  .000000000000D+00 -.102445483208D-07  .970000000000D+02
     .648060000000D+05  .400000000000D+01
